ISS (ZARYA)             
1 25544U 98067A   26048.57003830  .00008013  00000+0  15504-3 0  9995
2 25544  51.6323 171.8070 0011023 108.2943 251.9246 15.48664181553219
CSS (TIANHE)            
1 48274U 21035A   26048.23206423  .00029154  00000+0  35627-3 0  9994
2 48274  41.4683 332.5551 0004162 122.3722 237.7519 15.59770251274413
ISS (NAUKA)             
1 49044U 21066A   26048.57003830  .00008013  00000+0  15504-3 0  9991
2 49044  51.6323 171.8070 0011023 108.2943 251.9246 15.48664181230447
FREGAT DEB              
1 49271U 11037PF  26048.03913288  .00038169  00000+0  60296-1 0  9999
2 49271  51.6522   2.5988 0940927  11.9451 350.2139 12.38826834210135
CSS (WENTIAN)           
1 53239U 22085A   26048.23206423  .00029154  00000+0  35627-3 0  9997
2 53239  41.4683 332.5551 0004162 122.3722 237.7519 15.59770251173845
CSS (MENGTIAN)          
1 54216U 22143A   26048.23206423  .00029154  00000+0  35627-3 0  9998
2 54216  41.4683 332.5551 0004162 122.3722 237.7519 15.59770251158642
PROGRESS-MS 31          
1 64751U 25146A   26048.57003830  .00008013  00000+0  15504-3 0  9996
2 64751  51.6323 171.8070 0011023 108.2943 251.9246 15.48664181  6754
TIANZHOU-9              
1 64786U 25149A   26048.23206423  .00029154  00000+0  35627-3 0  9990
2 64786  41.4683 332.5551 0004162 122.3722 237.7519 15.59770251255306
DRAGON CRS-33           
1 65304U 25186A   26048.57003830  .00008013  00000+0  15504-3 0  9995
2 65304  51.6323 171.8070 0011023 108.2943 251.9246 15.48664181   113
PROGRESS-MS 32          
1 65586U 25204A   26048.57003830  .00008013  00000+0  15504-3 0  9998
2 65586  51.6323 171.8070 0011023 108.2943 251.9246 15.48664181   272
CYGNUS NG-23            
1 65616U 25208A   26048.57003830  .00008013  00000+0  15504-3 0  9996
2 65616  51.6323 171.8070 0011023 108.2943 251.9246 15.48664181   221
ISS OBJECT XK           
1 65731U 98067XK  26048.53635889  .00320003  48857-4  10450-2 0  9995
2 65731  51.6225 153.5012 0006252 341.9502  18.1281 15.90104525 23672
