CCSDS_OMM_VERS = 2.0
CREATION_DATE  = 
ORIGINATOR     = 

OBJECT_NAME    = ISS (ZARYA)
OBJECT_ID      = 1998-067A
CENTER_NAME    = EARTH
REF_FRAME      = TEME
TIME_SYSTEM    = UTC
MEAN_ELEMENT_THEORY = SGP/SGP4

EPOCH          = 2026-02-17T13:40:51.309120
MEAN_MOTION    = 15.48664181
ECCENTRICITY   = .0011023
INCLINATION    = 51.6323
RA_OF_ASC_NODE = 171.8070
ARG_OF_PERICENTER = 108.2943
MEAN_ANOMALY   = 251.9246

EPHEMERIS_TYPE = 0
CLASSIFICATION_TYPE = U
NORAD_CAT_ID   = 25544
ELEMENT_SET_NO = 999
REV_AT_EPOCH   = 55321
BSTAR          = .15503814E-3
MEAN_MOTION_DOT = .8013E-4
MEAN_MOTION_DDOT = 0

CCSDS_OMM_VERS = 2.0
CREATION_DATE  = 
ORIGINATOR     = 

OBJECT_NAME    = CSS (TIANHE)
OBJECT_ID      = 2021-035A
CENTER_NAME    = EARTH
REF_FRAME      = TEME
TIME_SYSTEM    = UTC
MEAN_ELEMENT_THEORY = SGP/SGP4

EPOCH          = 2026-02-17T05:34:10.349472
MEAN_MOTION    = 15.59770251
ECCENTRICITY   = .0004162
INCLINATION    = 41.4683
RA_OF_ASC_NODE = 332.5551
ARG_OF_PERICENTER = 122.3722
MEAN_ANOMALY   = 237.7519

EPHEMERIS_TYPE = 0
CLASSIFICATION_TYPE = U
NORAD_CAT_ID   = 48274
ELEMENT_SET_NO = 999
REV_AT_EPOCH   = 27441
BSTAR          = .35627E-3
MEAN_MOTION_DOT = .29154E-3
MEAN_MOTION_DDOT = 0

CCSDS_OMM_VERS = 2.0
CREATION_DATE  = 
ORIGINATOR     = 

OBJECT_NAME    = ISS (NAUKA)
OBJECT_ID      = 2021-066A
CENTER_NAME    = EARTH
REF_FRAME      = TEME
TIME_SYSTEM    = UTC
MEAN_ELEMENT_THEORY = SGP/SGP4

EPOCH          = 2026-02-17T13:40:51.309120
MEAN_MOTION    = 15.48664181
ECCENTRICITY   = .0011023
INCLINATION    = 51.6323
RA_OF_ASC_NODE = 171.8070
ARG_OF_PERICENTER = 108.2943
MEAN_ANOMALY   = 251.9246

EPHEMERIS_TYPE = 0
CLASSIFICATION_TYPE = U
NORAD_CAT_ID   = 49044
ELEMENT_SET_NO = 999
REV_AT_EPOCH   = 23044
BSTAR          = .15503814E-3
MEAN_MOTION_DOT = .8013E-4
MEAN_MOTION_DDOT = 0

CCSDS_OMM_VERS = 2.0
CREATION_DATE  = 
ORIGINATOR     = 

OBJECT_NAME    = FREGAT DEB
OBJECT_ID      = 2011-037PF
CENTER_NAME    = EARTH
REF_FRAME      = TEME
TIME_SYSTEM    = UTC
MEAN_ELEMENT_THEORY = SGP/SGP4

EPOCH          = 2026-02-17T00:56:21.080832
MEAN_MOTION    = 12.38826834
ECCENTRICITY   = .09409272
INCLINATION    = 51.6522
RA_OF_ASC_NODE = 2.5988
ARG_OF_PERICENTER = 11.9451
MEAN_ANOMALY   = 350.2139

EPHEMERIS_TYPE = 0
CLASSIFICATION_TYPE = U
NORAD_CAT_ID   = 49271
ELEMENT_SET_NO = 999
REV_AT_EPOCH   = 21013
BSTAR          = .60296196E-1
MEAN_MOTION_DOT = .38169E-3
MEAN_MOTION_DDOT = 0

CCSDS_OMM_VERS = 2.0
CREATION_DATE  = 
ORIGINATOR     = 

OBJECT_NAME    = CSS (WENTIAN)
OBJECT_ID      = 2022-085A
CENTER_NAME    = EARTH
REF_FRAME      = TEME
TIME_SYSTEM    = UTC
MEAN_ELEMENT_THEORY = SGP/SGP4

EPOCH          = 2026-02-17T05:34:10.349472
MEAN_MOTION    = 15.59770251
ECCENTRICITY   = .00041623
INCLINATION    = 41.4683
RA_OF_ASC_NODE = 332.5551
ARG_OF_PERICENTER = 122.3722
MEAN_ANOMALY   = 237.7519

EPHEMERIS_TYPE = 0
CLASSIFICATION_TYPE = U
NORAD_CAT_ID   = 53239
ELEMENT_SET_NO = 999
REV_AT_EPOCH   = 17384
BSTAR          = .35627248E-3
MEAN_MOTION_DOT = .29154E-3
MEAN_MOTION_DDOT = 0

CCSDS_OMM_VERS = 2.0
CREATION_DATE  = 
ORIGINATOR     = 

OBJECT_NAME    = CSS (MENGTIAN)
OBJECT_ID      = 2022-143A
CENTER_NAME    = EARTH
REF_FRAME      = TEME
TIME_SYSTEM    = UTC
MEAN_ELEMENT_THEORY = SGP/SGP4

EPOCH          = 2026-02-17T05:34:10.349472
MEAN_MOTION    = 15.59770251
ECCENTRICITY   = .00041623
INCLINATION    = 41.4683
RA_OF_ASC_NODE = 332.5551
ARG_OF_PERICENTER = 122.3722
MEAN_ANOMALY   = 237.7519

EPHEMERIS_TYPE = 0
CLASSIFICATION_TYPE = U
NORAD_CAT_ID   = 54216
ELEMENT_SET_NO = 999
REV_AT_EPOCH   = 15864
BSTAR          = .35627248E-3
MEAN_MOTION_DOT = .29154E-3
MEAN_MOTION_DDOT = 0

CCSDS_OMM_VERS = 2.0
CREATION_DATE  = 
ORIGINATOR     = 

OBJECT_NAME    = PROGRESS-MS 31
OBJECT_ID      = 2025-146A
CENTER_NAME    = EARTH
REF_FRAME      = TEME
TIME_SYSTEM    = UTC
MEAN_ELEMENT_THEORY = SGP/SGP4

EPOCH          = 2026-02-17T13:40:51.309120
MEAN_MOTION    = 15.48664181
ECCENTRICITY   = .0011023
INCLINATION    = 51.6323
RA_OF_ASC_NODE = 171.8070
ARG_OF_PERICENTER = 108.2943
MEAN_ANOMALY   = 251.9246

EPHEMERIS_TYPE = 0
CLASSIFICATION_TYPE = U
NORAD_CAT_ID   = 64751
ELEMENT_SET_NO = 999
REV_AT_EPOCH   = 675
BSTAR          = .15503814E-3
MEAN_MOTION_DOT = .8013E-4
MEAN_MOTION_DDOT = 0

CCSDS_OMM_VERS = 2.0
CREATION_DATE  = 
ORIGINATOR     = 

OBJECT_NAME    = TIANZHOU-9
OBJECT_ID      = 2025-149A
CENTER_NAME    = EARTH
REF_FRAME      = TEME
TIME_SYSTEM    = UTC
MEAN_ELEMENT_THEORY = SGP/SGP4

EPOCH          = 2026-02-17T05:34:10.349472
MEAN_MOTION    = 15.59770251
ECCENTRICITY   = .00041623
INCLINATION    = 41.4683
RA_OF_ASC_NODE = 332.5551
ARG_OF_PERICENTER = 122.3722
MEAN_ANOMALY   = 237.7519

EPHEMERIS_TYPE = 0
CLASSIFICATION_TYPE = U
NORAD_CAT_ID   = 64786
ELEMENT_SET_NO = 999
REV_AT_EPOCH   = 25530
BSTAR          = .35627248E-3
MEAN_MOTION_DOT = .29154E-3
MEAN_MOTION_DDOT = 0

CCSDS_OMM_VERS = 2.0
CREATION_DATE  = 
ORIGINATOR     = 

OBJECT_NAME    = DRAGON CRS-33
OBJECT_ID      = 2025-186A
CENTER_NAME    = EARTH
REF_FRAME      = TEME
TIME_SYSTEM    = UTC
MEAN_ELEMENT_THEORY = SGP/SGP4

EPOCH          = 2026-02-17T13:40:51.309120
MEAN_MOTION    = 15.48664181
ECCENTRICITY   = .0011023
INCLINATION    = 51.6323
RA_OF_ASC_NODE = 171.8070
ARG_OF_PERICENTER = 108.2943
MEAN_ANOMALY   = 251.9246

EPHEMERIS_TYPE = 0
CLASSIFICATION_TYPE = U
NORAD_CAT_ID   = 65304
ELEMENT_SET_NO = 999
REV_AT_EPOCH   = 11
BSTAR          = .15503814E-3
MEAN_MOTION_DOT = .8013E-4
MEAN_MOTION_DDOT = 0

CCSDS_OMM_VERS = 2.0
CREATION_DATE  = 
ORIGINATOR     = 

OBJECT_NAME    = PROGRESS-MS 32
OBJECT_ID      = 2025-204A
CENTER_NAME    = EARTH
REF_FRAME      = TEME
TIME_SYSTEM    = UTC
MEAN_ELEMENT_THEORY = SGP/SGP4

EPOCH          = 2026-02-17T13:40:51.309120
MEAN_MOTION    = 15.48664181
ECCENTRICITY   = .0011023
INCLINATION    = 51.6323
RA_OF_ASC_NODE = 171.8070
ARG_OF_PERICENTER = 108.2943
MEAN_ANOMALY   = 251.9246

EPHEMERIS_TYPE = 0
CLASSIFICATION_TYPE = U
NORAD_CAT_ID   = 65586
ELEMENT_SET_NO = 999
REV_AT_EPOCH   = 27
BSTAR          = .15503814E-3
MEAN_MOTION_DOT = .8013E-4
MEAN_MOTION_DDOT = 0

CCSDS_OMM_VERS = 2.0
CREATION_DATE  = 
ORIGINATOR     = 

OBJECT_NAME    = CYGNUS NG-23
OBJECT_ID      = 2025-208A
CENTER_NAME    = EARTH
REF_FRAME      = TEME
TIME_SYSTEM    = UTC
MEAN_ELEMENT_THEORY = SGP/SGP4

EPOCH          = 2026-02-17T13:40:51.309120
MEAN_MOTION    = 15.48664181
ECCENTRICITY   = .0011023
INCLINATION    = 51.6323
RA_OF_ASC_NODE = 171.8070
ARG_OF_PERICENTER = 108.2943
MEAN_ANOMALY   = 251.9246

EPHEMERIS_TYPE = 0
CLASSIFICATION_TYPE = U
NORAD_CAT_ID   = 65616
ELEMENT_SET_NO = 999
REV_AT_EPOCH   = 22
BSTAR          = .15503814E-3
MEAN_MOTION_DOT = .8013E-4
MEAN_MOTION_DDOT = 0

CCSDS_OMM_VERS = 2.0
CREATION_DATE  = 
ORIGINATOR     = 

OBJECT_NAME    = ISS OBJECT XK
OBJECT_ID      = 1998-067XK
CENTER_NAME    = EARTH
REF_FRAME      = TEME
TIME_SYSTEM    = UTC
MEAN_ELEMENT_THEORY = SGP/SGP4

EPOCH          = 2026-02-17T12:52:21.408096
MEAN_MOTION    = 15.90104525
ECCENTRICITY   = .00062528
INCLINATION    = 51.6225
RA_OF_ASC_NODE = 153.5012
ARG_OF_PERICENTER = 341.9502
MEAN_ANOMALY   = 18.1281

EPHEMERIS_TYPE = 0
CLASSIFICATION_TYPE = U
NORAD_CAT_ID   = 65731
ELEMENT_SET_NO = 999
REV_AT_EPOCH   = 2367
BSTAR          = .10449989E-2
MEAN_MOTION_DOT = .320003E-2
MEAN_MOTION_DDOT = .4885745E-4

